start=new Date('2022-12-17T00:00:00.000Z').valueOf();
sats=[{"RA_OF_ASC_NODE":"231.0532","MEAN_MOTION_DDOT":"0.0000000000000","ELEMENT_SET_NO":"999","CLASSIFICATION_TYPE":"U","CENTER_NAME":"EARTH","REV_AT_EPOCH":"4464","TLE_LINE2":"2 51769  53.2175 231.0532 0002797  35.2387 324.8790 15.08838471 44648","OBJECT_ID":"2022-017B","GP_ID":"220663572","ARG_OF_PERICENTER":"35.2387","OBJECT_NAME":"STARLINK-3621","PERIAPSIS":"537.815","FILE":"3705029","REF_FRAME":"TEME","MEAN_MOTION_DOT":"-0.00000123","OBJECT_TYPE":"PAYLOAD","SEMIMAJOR_AXIS":"6917.885","EPHEMERIS_TYPE":"0","MEAN_MOTION":"15.08838471","COUNTRY_CODE":"US","EPOCH":"2022-12-16T20:54:48.995424","RCS_SIZE":"LARGE","SITE":"AFWTR","NORAD_CAT_ID":"51769","MEAN_ANOMALY":"324.8790","TIME_SYSTEM":"UTC","ECCENTRICITY":"0.00027970","BSTAR":"0.00001038500000","TLE_LINE1":"1 51769U 22017B   22350.87140041 -.00000123  00000-0  10385-4 0  9995","PERIOD":"95.438","DECAY_DATE":null,"INCLINATION":"53.2175","LAUNCH_DATE":"2022-02-25","MEAN_ELEMENT_THEORY":"SGP4","APOAPSIS":"541.685"},{"ARG_OF_PERICENTER":"28.0302","OBJECT_NAME":"STARLINK-3612","REV_AT_EPOCH":"4462","CENTER_NAME":"EARTH","OBJECT_ID":"2022-017C","GP_ID":"220663317","TLE_LINE2":"2 51770  53.2174 231.9157 0002306  28.0302 332.0814 15.08848772 44625","CLASSIFICATION_TYPE":"U","MEAN_MOTION_DDOT":"0.0000000000000","ELEMENT_SET_NO":"999","RA_OF_ASC_NODE":"231.9157","EPHEMERIS_TYPE":"0","SEMIMAJOR_AXIS":"6917.854","MEAN_MOTION_DOT":"0.00001468","OBJECT_TYPE":"PAYLOAD","FILE":"3705029","REF_FRAME":"TEME","PERIAPSIS":"538.123","EPOCH":"2022-12-16T16:13:56.928576","SITE":"AFWTR","MEAN_ANOMALY":"332.0814","NORAD_CAT_ID":"51770","TIME_SYSTEM":"UTC","RCS_SIZE":"LARGE","COUNTRY_CODE":"US","MEAN_MOTION":"15.08848772","LAUNCH_DATE":"2022-02-25","MEAN_ELEMENT_THEORY":"SGP4","APOAPSIS":"541.314","INCLINATION":"53.2174","PERIOD":"95.437","DECAY_DATE":null,"BSTAR":"0.00011032000000","ECCENTRICITY":"0.00023060","TLE_LINE1":"1 51770U 22017C   22350.67635334  .00001468  00000-0  11032-3 0  9990"},{"FILE":"3705029","REF_FRAME":"TEME","PERIAPSIS":"537.785","EPHEMERIS_TYPE":"0","MEAN_MOTION_DOT":"0.00000249","OBJECT_TYPE":"PAYLOAD","SEMIMAJOR_AXIS":"6917.895","ELEMENT_SET_NO":"999","MEAN_MOTION_DDOT":"0.0000000000000","CLASSIFICATION_TYPE":"U","RA_OF_ASC_NODE":"231.0611","OBJECT_NAME":"STARLINK-3614","ARG_OF_PERICENTER":"38.6158","CENTER_NAME":"EARTH","REV_AT_EPOCH":"4464","TLE_LINE2":"2 51771  53.2154 231.0611 0002855  38.6158 321.5038 15.08835127 44648","GP_ID":"220664570","OBJECT_ID":"2022-017D","PERIOD":"95.438","DECAY_DATE":null,"ECCENTRICITY":"0.00028550","BSTAR":"0.00003376500000","TLE_LINE1":"1 51771U 22017D   22350.86868144  .00000249  00000-0  33765-4 0  9993","MEAN_ELEMENT_THEORY":"SGP4","LAUNCH_DATE":"2022-02-25","APOAPSIS":"541.735","INCLINATION":"53.2154","COUNTRY_CODE":"US","MEAN_MOTION":"15.08835127","EPOCH":"2022-12-16T20:50:54.076416","RCS_SIZE":"LARGE","SITE":"AFWTR","MEAN_ANOMALY":"321.5038","NORAD_CAT_ID":"51771","TIME_SYSTEM":"UTC"},{"COUNTRY_CODE":"US","MEAN_MOTION":"15.08836098","EPOCH":"2022-12-16T20:38:55.236192","RCS_SIZE":"MEDIUM","SITE":"AFWTR","NORAD_CAT_ID":"51772","TIME_SYSTEM":"UTC","MEAN_ANOMALY":"319.6316","PERIOD":"95.438","DECAY_DATE":null,"ECCENTRICITY":"0.00021830","BSTAR":"0.00003840500000","TLE_LINE1":"1 51772U 22017E   22350.86036153  .00000323  00000-0  38405-4 0  9990","LAUNCH_DATE":"2022-02-25","MEAN_ELEMENT_THEORY":"SGP4","APOAPSIS":"541.267","INCLINATION":"53.2164","ELEMENT_SET_NO":"999","MEAN_MOTION_DDOT":"0.0000000000000","CLASSIFICATION_TYPE":"U","RA_OF_ASC_NODE":"231.0942","OBJECT_NAME":"STARLINK-3623","ARG_OF_PERICENTER":"40.4839","CENTER_NAME":"EARTH","REV_AT_EPOCH":"4463","TLE_LINE2":"2 51772  53.2164 231.0942 0002183  40.4839 319.6316 15.08836098 44632","GP_ID":"220664305","OBJECT_ID":"2022-017E","FILE":"3705029","REF_FRAME":"TEME","PERIAPSIS":"538.247","EPHEMERIS_TYPE":"0","MEAN_MOTION_DOT":"0.00000323","OBJECT_TYPE":"PAYLOAD","SEMIMAJOR_AXIS":"6917.892"},{"COUNTRY_CODE":"US","MEAN_MOTION":"15.08837717","RCS_SIZE":"LARGE","NORAD_CAT_ID":"51773","SITE":"AFWTR","TIME_SYSTEM":"UTC","MEAN_ANOMALY":"330.9655","EPOCH":"2022-12-16T22:24:54.408384","DECAY_DATE":null,"PERIOD":"95.438","TLE_LINE1":"1 51773U 22017F   22350.93396306  .00000123  00000-0  25870-4 0  9998","ECCENTRICITY":"0.00028070","BSTAR":"0.00002587000000","APOAPSIS":"541.694","LAUNCH_DATE":"2022-02-25","MEAN_ELEMENT_THEORY":"SGP4","INCLINATION":"53.2176","MEAN_MOTION_DDOT":"0.0000000000000","ELEMENT_SET_NO":"999","CLASSIFICATION_TYPE":"U","RA_OF_ASC_NODE":"230.7546","OBJECT_NAME":"STARLINK-3624","ARG_OF_PERICENTER":"29.1493","TLE_LINE2":"2 51773  53.2176 230.7546 0002807  29.1493 330.9655 15.08837717 46111","OBJECT_ID":"2022-017F","GP_ID":"220637666","CENTER_NAME":"EARTH","REV_AT_EPOCH":"4611","REF_FRAME":"TEME","FILE":"3704911","PERIAPSIS":"537.811","EPHEMERIS_TYPE":"0","MEAN_MOTION_DOT":"0.00000123","OBJECT_TYPE":"PAYLOAD","SEMIMAJOR_AXIS":"6917.887"},{"PERIAPSIS":"537.709","REF_FRAME":"TEME","FILE":"3705029","SEMIMAJOR_AXIS":"6917.844","MEAN_MOTION_DOT":"0.00006948","OBJECT_TYPE":"PAYLOAD","EPHEMERIS_TYPE":"0","RA_OF_ASC_NODE":"231.1221","CLASSIFICATION_TYPE":"U","MEAN_MOTION_DDOT":"0.0000000000000","ELEMENT_SET_NO":"999","GP_ID":"220663818","OBJECT_ID":"2022-017G","TLE_LINE2":"2 51774  53.2154 231.1221 0002891  20.9105 339.2005 15.08852025 44607","REV_AT_EPOCH":"4460","CENTER_NAME":"EARTH","ARG_OF_PERICENTER":"20.9105","OBJECT_NAME":"STARLINK-3629","TLE_LINE1":"1 51774U 22017G   22350.85299668  .00006948  00000-0  45405-3 0  9999","BSTAR":"0.00045405000000","ECCENTRICITY":"0.00028910","DECAY_DATE":null,"PERIOD":"95.437","INCLINATION":"53.2154","APOAPSIS":"541.709","MEAN_ELEMENT_THEORY":"SGP4","LAUNCH_DATE":"2022-02-25","MEAN_MOTION":"15.08852025","COUNTRY_CODE":"US","NORAD_CAT_ID":"51774","SITE":"AFWTR","MEAN_ANOMALY":"339.2005","TIME_SYSTEM":"UTC","RCS_SIZE":"LARGE","EPOCH":"2022-12-16T20:28:18.913152"},{"MEAN_MOTION":"15.08838023","COUNTRY_CODE":"US","RCS_SIZE":"LARGE","NORAD_CAT_ID":"51775","SITE":"AFWTR","MEAN_ANOMALY":"331.9671","TIME_SYSTEM":"UTC","EPOCH":"2022-12-16T22:19:36.090048","TLE_LINE1":"1 51775U 22017H   22350.93027882  .00001269  00000-0  97838-4 0  9995","ECCENTRICITY":"0.00030720","BSTAR":"0.00009783800000","DECAY_DATE":null,"PERIOD":"95.438","INCLINATION":"53.2156","APOAPSIS":"541.877","LAUNCH_DATE":"2022-02-25","MEAN_ELEMENT_THEORY":"SGP4","RA_OF_ASC_NODE":"230.7829","MEAN_MOTION_DDOT":"0.0000000000000","ELEMENT_SET_NO":"999","CLASSIFICATION_TYPE":"U","TLE_LINE2":"2 51775  53.2156 230.7829 0003072  28.1487 331.9671 15.08838023 46101","OBJECT_ID":"2022-017H","GP_ID":"220637223","CENTER_NAME":"EARTH","REV_AT_EPOCH":"4610","ARG_OF_PERICENTER":"28.1487","OBJECT_NAME":"STARLINK-3620","PERIAPSIS":"537.626","REF_FRAME":"TEME","FILE":"3704911","OBJECT_TYPE":"PAYLOAD","MEAN_MOTION_DOT":"0.00001269","SEMIMAJOR_AXIS":"6917.886","EPHEMERIS_TYPE":"0"},{"TLE_LINE2":"2 51776  53.2177 231.1503 0002581  30.2823 329.8318 15.08833011 44600","GP_ID":"220664806","OBJECT_ID":"2022-017J","CENTER_NAME":"EARTH","REV_AT_EPOCH":"4460","ARG_OF_PERICENTER":"30.2823","OBJECT_NAME":"STARLINK-3608","RA_OF_ASC_NODE":"231.1503","MEAN_MOTION_DDOT":"0.0000000000000","ELEMENT_SET_NO":"999","CLASSIFICATION_TYPE":"U","OBJECT_TYPE":"PAYLOAD","MEAN_MOTION_DOT":"0.00000902","SEMIMAJOR_AXIS":"6917.902","EPHEMERIS_TYPE":"0","PERIAPSIS":"537.981","REF_FRAME":"TEME","FILE":"3705029","RCS_SIZE":"LARGE","SITE":"AFWTR","MEAN_ANOMALY":"329.8318","NORAD_CAT_ID":"51776","TIME_SYSTEM":"UTC","EPOCH":"2022-12-16T20:23:01.333536","MEAN_MOTION":"15.08833011","COUNTRY_CODE":"US","INCLINATION":"53.2177","APOAPSIS":"541.552","LAUNCH_DATE":"2022-02-25","MEAN_ELEMENT_THEORY":"SGP4","TLE_LINE1":"1 51776U 22017J   22350.84932099  .00000902  00000-0  74788-4 0  9993","ECCENTRICITY":"0.00025810","BSTAR":"0.00007478800000","DECAY_DATE":null,"PERIOD":"95.438"},{"RA_OF_ASC_NODE":"231.1207","ELEMENT_SET_NO":"999","MEAN_MOTION_DDOT":"0.0000000000000","CLASSIFICATION_TYPE":"U","CENTER_NAME":"EARTH","REV_AT_EPOCH":"4463","TLE_LINE2":"2 51777  53.2175 231.1207 0003066  33.5444 326.5742 15.08837537 44639","GP_ID":"220663573","OBJECT_ID":"2022-017K","OBJECT_NAME":"STARLINK-3625","ARG_OF_PERICENTER":"33.5444","PERIAPSIS":"537.632","FILE":"3705029","REF_FRAME":"TEME","OBJECT_TYPE":"PAYLOAD","MEAN_MOTION_DOT":"-0.00000267","SEMIMAJOR_AXIS":"6917.888","EPHEMERIS_TYPE":"0","MEAN_MOTION":"15.08837537","COUNTRY_CODE":"US","EPOCH":"2022-12-16T20:33:37.070784","RCS_SIZE":"LARGE","SITE":"AFWTR","TIME_SYSTEM":"UTC","NORAD_CAT_ID":"51777","MEAN_ANOMALY":"326.5742","ECCENTRICITY":"0.00030660","BSTAR":"0.00000134850000","TLE_LINE1":"1 51777U 22017K   22350.85667906 -.00000267  00000-0  13485-5 0  9990","PERIOD":"95.438","DECAY_DATE":null,"INCLINATION":"53.2175","MEAN_ELEMENT_THEORY":"SGP4","LAUNCH_DATE":"2022-02-25","APOAPSIS":"541.874"},{"INCLINATION":"53.2161","MEAN_ELEMENT_THEORY":"SGP4","LAUNCH_DATE":"2022-02-25","APOAPSIS":"541.544","ECCENTRICITY":"0.00025210","BSTAR":"-0.00004358000000","TLE_LINE1":"1 51778U 22017L   22350.93585523 -.00000982  00000-0 -43580-4 0  9997","PERIOD":"95.439","DECAY_DATE":null,"EPOCH":"2022-12-16T22:27:37.891872","RCS_SIZE":"LARGE","SITE":"AFWTR","MEAN_ANOMALY":"323.2206","NORAD_CAT_ID":"51778","TIME_SYSTEM":"UTC","MEAN_MOTION":"15.08822115","COUNTRY_CODE":"US","OBJECT_TYPE":"PAYLOAD","MEAN_MOTION_DOT":"-0.00000982","SEMIMAJOR_AXIS":"6917.935","EPHEMERIS_TYPE":"0","PERIAPSIS":"538.056","FILE":"3704912","REF_FRAME":"TEME","CENTER_NAME":"EARTH","REV_AT_EPOCH":"4625","TLE_LINE2":"2 51778  53.2161 220.7473 0002521  36.8959 323.2206 15.08822115 46251","OBJECT_ID":"2022-017L","GP_ID":"220637676","ARG_OF_PERICENTER":"36.8959","OBJECT_NAME":"STARLINK-3615","RA_OF_ASC_NODE":"220.7473","ELEMENT_SET_NO":"999","MEAN_MOTION_DDOT":"0.0000000000000","CLASSIFICATION_TYPE":"U"}];
